KUIPER-00251            
1 67156U 25301Z   26014.51809853  .00020266  00000+0  58905-3 0  9993
2 67156  51.8685 327.1712 0009207 199.1002 160.9639 15.35406501  5596
KUIPER-00252            
1 67157U 25301AA  26014.46141932  .00020249  00000+0  59501-3 0  9999
2 67157  51.8664 327.5373 0009906 208.9065 151.1373 15.35056749  5395
KUIPER-00261            
1 67158U 25301AB  26014.50389655  .00020132  00000+0  56925-3 0  9999
2 67158  51.8710 327.0851 0006528 182.3691 177.7265 15.36292563  5404
KUIPER-00265            
1 67159U 25301AC  26014.58335648 -.01616748  00000+0 -87703-1 0  9994
2 67159  51.8826 327.2801 0001279 225.0309 317.0489 15.17547907  5444
